PLEIADES 1A             
1 38012U 11076F   26196.18830620 -.00000049  00000+0 -76596-6 0  9994
2 38012  98.1976 270.9135 0001669  80.2866   4.4145 14.58546279776071
PLEIADES 1B             
1 39019U 12068A   26196.20615889  .00000088  00000+0  28806-4 0  9995
2 39019  98.1947 270.8705 0001565  79.7859 280.3517 14.58534351724933
